BEIDOU-3 M1 (C19)       
1 43001U 17069A   24188.20583768 -.00000056  00000+0  00000+0 0  9993
2 43001  56.0772  86.6257 0009940 311.4460  48.5022  1.86231567 45360
BEIDOU-3 M2 (C20)       
1 43002U 17069B   24189.21704018 -.00000049  00000+0  00000+0 0  9991
2 43002  56.0772  86.6284 0008377 336.5683  23.4328  1.86231082 45373
BEIDOU-3 M7 (C27)       
1 43107U 18003A   24188.96589877 -.00000108  00000+0  00000+0 0  9997
2 43107  54.9215 326.9454 0004408  81.8177 278.2216  1.86232602 44123
BEIDOU-3 M8 (C28)       
1 43108U 18003B   24189.44346036 -.00000106  00000+0  00000+0 0  9998
2 43108  54.9144 326.9142 0003008 247.3993 112.5597  1.86230754 44149
BEIDOU-3 M4 (C22)       
1 43207U 18018A   24181.29350937 -.00000047  00000+0  00000+0 0  9998
2 43207  56.0307  86.9448 0006708   1.9650 358.0567  1.86231207 43371
BEIDOU-3 M3 (C21)       
1 43208U 18018B   24187.26661061 -.00000064  00000+0  00000+0 0  9994
2 43208  56.0348  86.7496 0008075 326.0726  33.9033  1.86231326 43483
BEIDOU-3 M9 (C29)       
1 43245U 18029A   24189.09847076 -.00000105  00000+0  00000+0 0  9998
2 43245  54.8037 324.6464 0000856 176.2185 183.7731  1.86232840 42678
BEIDOU-3 M10 (C30)      
1 43246U 18029B   24188.49116278 -.00000107  00000+0  00000+0 0  9997
2 43246  54.8018 324.6955 0003190  20.6699 339.3320  1.86233032 42643
BEIDOU-2 IGSO-7 (C16)   
1 43539U 18057A   24190.16330608 -.00000097  00000+0  00000+0 0  9993
2 43539  55.1457 169.1850 0075568 233.7446  51.2410  1.00247030 22029
BEIDOU-3 M5 (C23)       
1 43581U 18062A   24189.25142775  .00000045  00000+0  00000+0 0  9992
2 43581  54.1320 206.4501 0005624 275.9099  84.0668  1.86228835 40418
BEIDOU-3 M6 (C24)       
1 43582U 18062B   24185.89551434  .00000089  00000+0  00000+0 0  9993
2 43582  54.1318 206.5538 0004293 354.2922   5.7626  1.86229555 40351
BEIDOU-3 M12 (C26)      
1 43602U 18067A   24185.82867086  .00000090  00000+0  00000+0 0  9999
2 43602  54.2223 205.2391 0006685  16.8968 343.1829  1.86231627 39839
BEIDOU-3 M11 (C25)      
1 43603U 18067B   24189.18428360  .00000045  00000+0  00000+0 0  9991
2 43603  54.2193 205.0902 0003754 357.7621   2.2745  1.86231593 39921
BEIDOU-3 M13 (C32)      
1 43622U 18072A   24189.14553213 -.00000049  00000+0  00000+0 0  9995
2 43622  56.0077  86.2138 0006536 312.2258  47.7582  1.86231638 39435
BEIDOU-3 M14 (C33)      
1 43623U 18072B   24190.08490012 -.00000045  00000+0  00000+0 0  9994
2 43623  56.0100  86.1757 0005122 344.2942  15.7338  1.86231630 39441
BEIDOU-3 M16 (C35)      
1 43647U 18078A   24188.09961627 -.00000108  00000+0  00000+0 0  9999
2 43647  54.7011 324.7782 0006637  23.8280 336.1905  1.86232297 38910
BEIDOU-3 M15 (C34)      
1 43648U 18078B   24189.30268936 -.00000105  00000+0  00000+0 0  9995
2 43648  54.6960 324.7394 0003675  41.2629 318.7564  1.86232383 38959
GSAT0215 (PRN E21)      
1 43055U 17079A   24189.83728234  .00000028  00000+0  00000+0 0  9990
2 43055  55.3325 241.0299 0003071 254.6358 105.4229  1.70474683 40897
GSAT0216 (PRN E25)      
1 43056U 17079B   24188.36923443  .00000033  00000+0  00000+0 0  9993
2 43056  55.3327 241.0700 0004728 266.8574  93.1855  1.70474438 40887
GSAT0217 (PRN E27)      
1 43057U 17079C   24188.58970510  .00000032  00000+0  00000+0 0  9994
2 43057  55.3360 241.0626 0001619 286.8895  73.1893  1.70474365 40874
GSAT0218 (PRN E31)      
1 43058U 17079D   24187.05001312  .00000038  00000+0  00000+0 0  9997
2 43058  55.3319 241.1029 0006126 265.0652  94.9626  1.70474387 40874
GSAT0221 (PRN E15)      
1 43564U 18060A   24188.12399182 -.00000100  00000+0  00000+0 0  9995
2 43564  57.3049   0.9576 0001949 292.8322  67.1527  1.70475975 37047
GSAT0222 (PRN E33)      
1 43565U 18060B   24188.92912696 -.00000100  00000+0  00000+0 0  9995
2 43565  57.3085   0.9379 0001838 215.6186 144.3733  1.70475744 37105
GSAT0219 (PRN E36)      
1 43566U 18060C   24184.45831486 -.00000092  00000+0  00000+0 0  9997
2 43566  57.3081   1.0599 0001342 320.5311  39.4744  1.70475824 37008
GSAT0220 (PRN E13)      
1 43567U 18060D   24188.19843621 -.00000100  00000+0  00000+0 0  9997
2 43567  57.3075   0.9593 0001474 300.0345  59.9562  1.70475891 37054
QZS-2 (MICHIBIKI-2)     
1 42738U 17028A   24188.46195543 -.00000158  00000+0  00000+0 0  9995
2 42738  40.5420 253.4839 0757875 269.4335  69.8869  1.00279302   499
QZS-3 (MICHIBIKI-3)     
1 42917U 17048A   24190.02966010 -.00000351  00000+0  00000+0 0  9991
2 42917   0.0663 213.7694 0001978 259.1534 311.2466  1.00273986 25259
QZS-4 (MICHIBIKI-4)     
1 42965U 17062A   24176.78903547 -.00000324  00000+0  00000+0 0  9993
2 42965  40.5115 352.6916 0746082 271.6310  68.9097  1.00249876 24566
IRNSS-1I                
1 43286U 18035A   24188.79146674  .00000062  00000+0  00000+0 0  9993
2 43286  29.1489  85.3235 0018322 180.4236 359.4206  1.00271341 22950
COSMOS 2522 (752)       
1 42939U 17055A   24189.13416683  .00000056  00000+0  00000+0 0  9990
2 42939  64.0830 216.0847 0010336 241.2131 118.7478  2.13101971 52845
COSMOS 2527 (756)       
1 43508U 18053A   24189.09329895 -.00000021  00000+0  00000+0 0  9998
2 43508  65.2111  97.6609 0007648 235.1770 124.7806  2.13102388 47147
