OBJECT_NAME,OBJECT_ID,EPOCH,MEAN_MOTION,ECCENTRICITY,INCLINATION,RA_OF_ASC_NODE,ARG_OF_PERICENTER,MEAN_ANOMALY,EPHEMERIS_TYPE,CLASSIFICATION_TYPE,NORAD_CAT_ID,ELEMENT_SET_NO,REV_AT_EPOCH,BSTAR,MEAN_MOTION_DOT,MEAN_MOTION_DDOT
QZS-2 (QZSS/PRN 194),2017-028A,2024-07-06T11:05:12.949152,1.00279302,.0757875,40.5420,253.4839,269.4335,69.8869,0,U,42738,999,49,0,-.158E-5,0
QZS-3 (QZSS/PRN 199),2017-048A,2024-07-08T00:42:42.632640,1.00273986,.0001978,0.0663,213.7694,259.1534,311.2466,0,U,42917,999,2525,0,-.351E-5,0
COSMOS 2522 (752),2017-055A,2024-07-07T03:13:12.014112,2.13101971,.0010336,64.0830,216.0847,241.2131,118.7478,0,U,42939,999,5284,0,.56E-6,0
QZS-4 (QZSS/PRN 195),2017-062A,2024-06-24T18:56:12.664608,1.00249876,.0746082,40.5115,352.6916,271.6310,68.9097,0,U,42965,999,2456,0,-.324E-5,0
BEIDOU-3 M1 (C19),2017-069A,2024-07-06T04:56:24.375552,1.86231567,.000994,56.0772,86.6257,311.4460,48.5022,0,U,43001,999,4536,0,-.56E-6,0
BEIDOU-3 M2 (C20),2017-069B,2024-07-07T05:12:32.271552,1.86231082,.0008377,56.0772,86.6284,336.5683,23.4328,0,U,43002,999,4537,0,-.49E-6,0
GSAT0215 (PRN E21),2017-079A,2024-07-07T20:05:41.194176,1.70474683,.0003071,55.3325,241.0299,254.6358,105.4229,0,U,43055,999,4089,0,.28E-6,0
GSAT0216 (PRN E25),2017-079B,2024-07-06T08:51:41.854752,1.70474438,.0004728,55.3327,241.0700,266.8574,93.1855,0,U,43056,999,4088,0,.33E-6,0
GSAT0217 (PRN E27),2017-079C,2024-07-06T14:09:10.520640,1.70474365,.0001619,55.3360,241.0626,286.8895,73.1893,0,U,43057,999,4087,0,.32E-6,0
GSAT0218 (PRN E31),2017-079D,2024-07-05T01:12:01.133568,1.70474387,.0006126,55.3319,241.1029,265.0652,94.9626,0,U,43058,999,4087,0,.38E-6,0
BEIDOU-3 M7 (C27),2018-003A,2024-07-06T23:10:53.653728,1.86232602,.0004408,54.9215,326.9454,81.8177,278.2216,0,U,43107,999,4412,0,-.108E-5,0
BEIDOU-3 M8 (C28),2018-003B,2024-07-07T10:38:34.975104,1.86230754,.0003008,54.9144,326.9142,247.3993,112.5597,0,U,43108,999,4414,0,-.106E-5,0
BEIDOU-3 M4 (C22),2018-018A,2024-06-29T07:02:39.209568,1.86231207,.0006708,56.0307,86.9448,1.9650,358.0567,0,U,43207,999,4337,0,-.47E-6,0
BEIDOU-3 M3 (C21),2018-018B,2024-07-05T06:23:55.156704,1.86231326,.0008075,56.0348,86.7496,326.0726,33.9033,0,U,43208,999,4348,0,-.64E-6,0
BEIDOU-3 M9 (C29),2018-029A,2024-07-07T02:21:47.873664,1.86232840,.0000856,54.8037,324.6464,176.2185,183.7731,0,U,43245,999,4267,0,-.105E-5,0
BEIDOU-3 M10 (C30),2018-029B,2024-07-06T11:47:16.464192,1.86233032,.000319,54.8018,324.6955,20.6699,339.3320,0,U,43246,999,4264,0,-.107E-5,0
IRNSS-1I,2018-035A,2024-07-06T18:59:42.726336,1.00271341,.0018322,29.1489,85.3235,180.4236,359.4206,0,U,43286,999,2295,0,.62E-6,0
COSMOS 2527 (756),2018-053A,2024-07-07T02:14:21.029280,2.13102388,.0007648,65.2111,97.6609,235.1770,124.7806,0,U,43508,999,4714,0,-.21E-6,0
BEIDOU-2 IGSO-7 (C16),2018-057A,2024-07-08T03:55:09.645312,1.00247030,.0075568,55.1457,169.1850,233.7446,51.2410,0,U,43539,999,2202,0,-.97E-6,0
GSAT0221 (PRN E15),2018-060A,2024-07-06T02:58:32.893248,1.70475975,.0001949,57.3049,0.9576,292.8322,67.1527,0,U,43564,999,3704,0,-.1E-5,0
GSAT0222 (PRN E33),2018-060B,2024-07-06T22:17:56.569344,1.70475744,.0001838,57.3085,0.9379,215.6186,144.3733,0,U,43565,999,3710,0,-.1E-5,0
GSAT0219 (PRN E36),2018-060C,2024-07-02T10:59:58.403904,1.70475824,.0001342,57.3081,1.0599,320.5311,39.4744,0,U,43566,999,3700,0,-.92E-6,0
GSAT0220 (PRN E13),2018-060D,2024-07-06T04:45:44.888544,1.70475891,.0001474,57.3075,0.9593,300.0345,59.9562,0,U,43567,999,3705,0,-.1E-5,0
BEIDOU-3 M5 (C23),2018-062A,2024-07-07T06:02:03.357600,1.86228835,.0005624,54.1320,206.4501,275.9099,84.0668,0,U,43581,999,4041,0,.45E-6,0
BEIDOU-3 M6 (C24),2018-062B,2024-07-03T21:29:32.438976,1.86229555,.0004293,54.1318,206.5538,354.2922,5.7626,0,U,43582,999,4035,0,.89E-6,0
BEIDOU-3 M12 (C26),2018-067A,2024-07-03T19:53:17.162304,1.86231627,.0006685,54.2223,205.2391,16.8968,343.1829,0,U,43602,999,3983,0,.9E-6,0
BEIDOU-3 M11 (C25),2018-067B,2024-07-07T04:25:22.103040,1.86231593,.0003754,54.2193,205.0902,357.7621,2.2745,0,U,43603,999,3992,0,.45E-6,0
BEIDOU-3 M13 (C32),2018-072A,2024-07-07T03:29:33.976032,1.86231638,.0006536,56.0077,86.2138,312.2258,47.7582,0,U,43622,999,3943,0,-.49E-6,0
BEIDOU-3 M14 (C33),2018-072B,2024-07-08T02:02:15.370368,1.86231630,.0005122,56.0100,86.1757,344.2942,15.7338,0,U,43623,999,3944,0,-.45E-6,0
BEIDOU-3 M16 (C35),2018-078A,2024-07-06T02:23:26.845728,1.86232297,.0006637,54.7011,324.7782,23.8280,336.1905,0,U,43647,999,3891,0,-.108E-5,0
BEIDOU-3 M15 (C34),2018-078B,2024-07-07T07:15:52.360704,1.86232383,.0003675,54.6960,324.7394,41.2629,318.7564,0,U,43648,999,3895,0,-.105E-5,0
